$$SOE
2461295.500000000, A.D. 2026-Sep-12 00:00:00.0000, 2.029189822568633E+07, 3.512748312410951E+08, -2.704742874204034E+07,
2461302.500000000, A.D. 2026-Sep-19 00:00:00.0000, 9.467356609284729E+06, 3.555753643416265E+08, -2.758095449117932E+07,
2461309.500000000, A.D. 2026-Sep-26 00:00:00.0000, -1.367458633799008E+06, 3.594957972792763E+08, -2.808498882844467E+07,
2461316.500000000, A.D. 2026-Oct-03 00:00:00.0000, -1.220101202889344E+07, 3.630440341479379E+08, -2.855993727847555E+07,
2461323.500000000, A.D. 2026-Oct-10 00:00:00.0000, -2.302247657354153E+07, 3.662279631028165E+08, -2.900621711563133E+07,
2461330.500000000, A.D. 2026-Oct-17 00:00:00.0000, -3.382168811898509E+07, 3.690554313999373E+08, -2.942425456935456E+07,
2461337.500000000, A.D. 2026-Oct-24 00:00:00.0000, -4.458910215012787E+07, 3.715342244278117E+08, -2.981448239974418E+07,
2461344.500000000, A.D. 2026-Oct-31 00:00:00.0000, -5.531575286596093E+07, 3.736720481461553E+08, -3.017733781727757E+07,
2461351.500000000, A.D. 2026-Nov-07 00:00:00.0000, -6.599321418958112E+07, 3.754765145456050E+08, -3.051326073511478E+07,
2461358.500000000, A.D. 2026-Nov-14 00:00:00.0000, -7.661356245086443E+07, 3.769551306101661E+08, -3.082269226727971E+07,
2461365.500000000, A.D. 2026-Nov-21 00:00:00.0000, -8.716934247745155E+07, 3.781152911084749E+08, -3.110607322221382E+07,
2461372.500000000, A.D. 2026-Nov-28 00:00:00.0000, -9.765353799942504E+07, 3.789642718876891E+08, -3.136384271938948E+07,
2461379.500000000, A.D. 2026-Dec-05 00:00:00.0000, -1.080595426514468E+08, 3.795092227298662E+08, -3.159643728952543E+07,
2461386.500000000, A.D. 2026-Dec-12 00:00:00.0000, -1.183811313071757E+08, 3.797571626397291E+08, -3.180429019845591E+07,
2461393.500000000, A.D. 2026-Dec-19 00:00:00.0000, -1.286124335262161E+08, 3.797149773559033E+08, -3.198783080207798E+07,
2461400.500000000, A.D. 2026-Dec-26 00:00:00.0000, -1.387479091517065E+08, 3.793894180259064E+08, -3.214748397234049E+07,
2461407.500000000, A.D. 2027-Jan-02 00:00:00.0000, -1.487823256834115E+08, 3.787871006891830E+08, -3.228366961985219E+07,
2461414.500000000, A.D. 2027-Jan-09 00:00:00.0000, -1.587107372125900E+08, 3.779145064484461E+08, -3.239680230954553E+07,
2461421.500000000, A.D. 2027-Jan-16 00:00:00.0000, -1.685284647880714E+08, 3.767779822177258E+08, -3.248729096112365E+07,
2461428.500000000, A.D. 2027-Jan-23 00:00:00.0000, -1.782310780750699E+08, 3.753837419018812E+08, -3.255553863207757E+07,
2461435.500000000, A.D. 2027-Jan-30 00:00:00.0000, -1.878143780311599E+08, 3.737378678666714E+08, -3.260194239561564E+07,
2461442.500000000, A.D. 2027-Feb-06 00:00:00.0000, -1.972743800926044E+08, 3.718463129582825E+08, -3.262689331690520E+07,
2461449.500000000, A.D. 2027-Feb-13 00:00:00.0000, -2.066072982551701E+08, 3.697149042232372E+08, -3.263077637926377E+07,
2461456.500000000, A.D. 2027-Feb-20 00:00:00.0000, -2.158095323405869E+08, 3.673493474808950E+08, -3.261397020296720E+07,
2461463.500000000, A.D. 2027-Feb-27 00:00:00.0000, -2.248776569805640E+08, 3.647552294837295E+08, -3.257684694203912E+07,
2461470.500000000, A.D. 2027-Mar-06 00:00:00.0000, -2.338084092346291E+08, 3.619380195409510E+08, -3.251977247347859E+07,
2461477.500000000, A.D. 2027-Mar-13 00:00:00.0000, -2.425986763831252E+08, 3.589030726190651E+08, -3.244310656128734E+07,
2461484.500000000, A.D. 2027-Mar-20 00:00:00.0000, -2.512454849667063E+08, 3.556556330549275E+08, -3.234720295695958E+07,
2461491.500000000, A.D. 2027-Mar-27 00:00:00.0000, -2.597459908153163E+08, 3.522008383047631E+08, -3.223240949664156E+07,
2461498.500000000, A.D. 2027-Apr-03 00:00:00.0000, -2.680974698133577E+08, 3.485437226575855E+08, -3.209906821464279E+07,
2461505.500000000, A.D. 2027-Apr-10 00:00:00.0000, -2.762973092933461E+08, 3.446892209162974E+08, -3.194751547464314E+07,
2461512.500000000, A.D. 2027-Apr-17 00:00:00.0000, -2.843429999928792E+08, 3.406421720158112E+08, -3.177808211974275E+07,
2461519.500000000, A.D. 2027-Apr-24 00:00:00.0000, -2.922321284556730E+08, 3.364073225025172E+08, -3.159109365191364E+07,
2461526.500000000, A.D. 2027-May-01 00:00:00.0000, -2.999623695398523E+08, 3.319893298917360E+08, -3.138687046447898E+07,
2461533.500000000, A.D. 2027-May-08 00:00:00.0000, -3.075314786918879E+08, 3.273927666423500E+08, -3.116572809327929E+07,
2461540.500000000, A.D. 2027-May-15 00:00:00.0000, -3.149372854522738E+08, 3.226221256953617E+08, -3.092797727035722E+07,
2461547.500000000, A.D. 2027-May-22 00:00:00.0000, -3.221776897277845E+08, 3.176818249811459E+08, -3.067392384790197E+07,
2461554.500000000, A.D. 2027-May-29 00:00:00.0000, -3.292506574446219E+08, 3.125762094227833E+08, -3.040386901896405E+07,
2461561.500000000, A.D. 2027-Jun-05 00:00:00.0000, -3.361542146718494E+08, 3.073095535617000E+08, -3.011810965884264E+07,
2461568.500000000, A.D. 2027-Jun-12 00:00:00.0000, -3.428864422014828E+08, 3.018860652359550E+08, -2.981693856742536E+07,
2461575.500000000, A.D. 2027-Jun-19 00:00:00.0000, -3.494454708951065E+08, 2.963098893767176E+08, -2.950064465821378E+07,
2461582.500000000, A.D. 2027-Jun-26 00:00:00.0000, -3.558294774970896E+08, 2.905851116616615E+08, -2.916951314038831E+07,
2461589.500000000, A.D. 2027-Jul-03 00:00:00.0000, -3.620366807636681E+08, 2.847157620338464E+08, -2.882382570475087E+07,
2461596.500000000, A.D. 2027-Jul-10 00:00:00.0000, -3.680653378542094E+08, 2.787058180958253E+08, -2.846386071573578E+07,
2461603.500000000, A.D. 2027-Jul-17 00:00:00.0000, -3.739137409329134E+08, 2.725592083418627E+08, -2.808989341561563E+07,
2461610.500000000, A.D. 2027-Jul-24 00:00:00.0000, -3.795802138103045E+08, 2.662798151678526E+08, -2.770219616008389E+07,
2461617.500000000, A.D. 2027-Jul-31 00:00:00.0000, -3.850631081997725E+08, 2.598714778973246E+08, -2.730103870344822E+07,
2461624.500000000, A.D. 2027-Aug-07 00:00:00.0000, -3.903607997774836E+08, 2.533379969784495E+08, -2.688668842072463E+07,
2461631.500000000, A.D. 2027-Aug-14 00:00:00.0000, -3.954716863357008E+08, 2.466831391026823E+08, -2.645941027632816E+07,
2461638.500000000, A.D. 2027-Aug-21 00:00:00.0000, -4.003941873998282E+08, 2.399106398858078E+08, -2.601946687099964E+07,
2461645.500000000, A.D. 2027-Aug-28 00:00:00.0000, -4.051267418646504E+08, 2.330242053171760E+08, -2.556711878267089E+07,
2461652.500000000, A.D. 2027-Sep-04 00:00:00.0000, -4.096678048208523E+08, 2.260275144796422E+08, -2.510262488809011E+07,
2461659.500000000, A.D. 2027-Sep-11 00:00:00.0000, -4.140158449617978E+08, 2.189242228816096E+08, -2.462624259192493E+07,
2461666.500000000, A.D. 2027-Sep-18 00:00:00.0000, -4.181693424327390E+08, 2.117179657563126E+08, -2.413822802959763E+07,
2461673.500000000, A.D. 2027-Sep-25 00:00:00.0000, -4.221267868885445E+08, 2.044123612569348E+08, -2.363883627200070E+07,
2461680.500000000, A.D. 2027-Oct-02 00:00:00.0000, -4.258866756796018E+08, 1.970110135816781E+08, -2.312832153743489E+07,
2461687.500000000, A.D. 2027-Oct-09 00:00:00.0000, -4.294475121379879E+08, 1.895175160307753E+08, -2.260693741378262E+07,
2461694.500000000, A.D. 2027-Oct-16 00:00:00.0000, -4.328078038954113E+08, 1.819354539467736E+08, -2.207493710166822E+07,
2461701.500000000, A.D. 2027-Oct-23 00:00:00.0000, -4.359660609681171E+08, 1.742684075383417E+08, -2.153257370331287E+07,
2461708.500000000, A.D. 2027-Oct-30 00:00:00.0000, -4.389207932296384E+08, 1.665199552036456E+08, -2.098010054194717E+07,
2461715.500000000, A.D. 2027-Nov-06 00:00:00.0000, -4.416705084315450E+08, 1.586936784869653E+08, -2.041777131332604E+07,
2461722.500000000, A.D. 2027-Nov-13 00:00:00.0000, -4.442137127563258E+08, 1.507931665986414E+08, -1.984584005762245E+07,
2461729.500000000, A.D. 2027-Nov-20 00:00:00.0000, -4.465489109990898E+08, 1.428220183203567E+08, -1.926456139706345E+07,
2461736.500000000, A.D. 2027-Nov-27 00:00:00.0000, -4.486746047569135E+08, 1.347838442670712E+08, -1.867419094549263E+07,
2461743.500000000, A.D. 2027-Dec-04 00:00:00.0000, -4.505892906477323E+08, 1.266822704249304E+08, -1.807498562991900E+07,
2461750.500000000, A.D. 2027-Dec-11 00:00:00.0000, -4.522914591104277E+08, 1.185209420080656E+08, -1.746720395309853E+07,
2461757.500000000, A.D. 2027-Dec-18 00:00:00.0000, -4.537795935121670E+08, 1.103035273034006E+08, -1.685110625075119E+07,
2461764.500000000, A.D. 2027-Dec-25 00:00:00.0000, -4.550521694117398E+08, 1.020337215095668E+08, -1.622695495806544E+07,
2461771.500000000, A.D. 2028-Jan-01 00:00:00.0000, -4.561076539387003E+08, 9.371525059273371E+07, -1.559501488863505E+07,
$$EOE